MALLIGYONG-1            
1 58400U 23179A   24196.15079639  .00007035  00000+0  31635-3 0  9996
2 58400  97.4004  82.5420 0003719  97.7857 262.3801 15.21419431 35828
